{
  "type": "FeatureCollection",
  "features": [
    {
      "type": "Feature",
      "properties": {
        "norad_id": 40069,
        "name": "METEOR-M 2",
        "group": "weather",
        "lat": -10.120430952647443,
        "lon": -42.40015317004479,
        "alt_km": 826.0701312976298,
        "timestamp": "2025-12-04T03:47:54.197357+00:00",
        "meta_object_name": "METEOR-M 2",
        "meta_object_id": "2014-037A",
        "meta_epoch": "2025-12-03T21:05:18.962016",
        "meta_mean_motion": 14.21380946,
        "meta_eccentricity": 0.0004715,
        "meta_inclination": 98.4893,
        "meta_ra_of_asc_node": 315.8034,
        "meta_arg_of_pericenter": 239.2368,
        "meta_mean_anomaly": 120.8346,
        "meta_ephemeris_type": 0,
        "meta_classification_type": "U",
        "meta_norad_cat_id": 40069,
        "meta_element_set_no": 999,
        "meta_rev_at_epoch": 59157,
        "meta_bstar": 0.00013194,
        "meta_mean_motion_dot": 2.46e-06,
        "meta_mean_motion_ddot": 0,
        "tle_line1": "1 40069U 14037A   25337.87869169  .00000246  00000+0  13194-3 0  9990",
        "tle_line2": "2 40069  98.4893 315.8034 0004715 239.2368 120.8346 14.21380946591575"
      },
      "geometry": {
        "type": "Point",
        "coordinates": [
          -42.40015317004479,
          -10.120430952647443
        ]
      }
    },
    {
      "type": "Feature",
      "properties": {
        "norad_id": 40267,
        "name": "HIMAWARI-8",
        "group": "weather",
        "lat": 0.006836936079392425,
        "lon": -89.13548627511224,
        "alt_km": 35781.30617881049,
        "timestamp": "2025-12-04T03:47:54.197374+00:00",
        "meta_object_name": "HIMAWARI-8",
        "meta_object_id": "2014-060A",
        "meta_epoch": "2025-12-03T18:51:33.971040",
        "meta_mean_motion": 1.00270422,
        "meta_eccentricity": 0.0001266,
        "meta_inclination": 0.0059,
        "meta_ra_of_asc_node": 94.3673,
        "meta_arg_of_pericenter": 190.2827,
        "meta_mean_anomaly": 211.7912,
        "meta_ephemeris_type": 0,
        "meta_classification_type": "U",
        "meta_norad_cat_id": 40267,
        "meta_element_set_no": 999,
        "meta_rev_at_epoch": 4080,
        "meta_bstar": 0,
        "meta_mean_motion_dot": -2.58e-06,
        "meta_mean_motion_ddot": 0,
        "tle_line1": "1 40267U 14060A   25337.78580985 -.00000258  00000+0  00000+0 0  9994",
        "tle_line2": "2 40267   0.0059  94.3673 0001266 190.2827 211.7912  1.00270422 40804"
      },
      "geometry": {
        "type": "Point",
        "coordinates": [
          -89.13548627511224,
          0.006836936079392425
        ]
      }
    },
    {
      "type": "Feature",
      "properties": {
        "norad_id": 40367,
        "name": "FENGYUN 2G",
        "group": "weather",
        "lat": 2.1712905655948647,
        "lon": -130.02867852020535,
        "alt_km": 35776.86554988322,
        "timestamp": "2025-12-04T03:47:54.197387+00:00",
        "meta_object_name": "FENGYUN 2G",
        "meta_object_id": "2014-090A",
        "meta_epoch": "2025-12-03T19:21:58.999968",
        "meta_mean_motion": 1.00267296,
        "meta_eccentricity": 0.0003112,
        "meta_inclination": 5.1439,
        "meta_ra_of_asc_node": 75.201,
        "meta_arg_of_pericenter": 193.8463,
        "meta_mean_anomaly": 194.0504,
        "meta_ephemeris_type": 0,
        "meta_classification_type": "U",
        "meta_norad_cat_id": 40367,
        "meta_element_set_no": 999,
        "meta_rev_at_epoch": 4004,
        "meta_bstar": 0,
        "meta_mean_motion_dot": -2.88e-06,
        "meta_mean_motion_ddot": 0,
        "tle_line1": "1 40367U 14090A   25337.80693287 -.00000288  00000+0  00000+0 0  9994",
        "tle_line2": "2 40367   5.1439  75.2010 0003112 193.8463 194.0504  1.00267296 40044"
      },
      "geometry": {
        "type": "Point",
        "coordinates": [
          -130.02867852020535,
          2.1712905655948647
        ]
      }
    },
    {
      "type": "Feature",
      "properties": {
        "norad_id": 40732,
        "name": "METEOSAT-11 (MSG-4)",
        "group": "weather",
        "lat": 2.5134950127183724,
        "lon": 139.65911870603168,
        "alt_km": 35784.0942456266,
        "timestamp": "2025-12-04T03:47:54.197399+00:00",
        "meta_object_name": "METEOSAT-11 (MSG-4)",
        "meta_object_id": "2015-034A",
        "meta_epoch": "2025-12-03T13:48:01.944000",
        "meta_mean_motion": 1.0027785,
        "meta_eccentricity": 2.41e-05,
        "meta_inclination": 2.7126,
        "meta_ra_of_asc_node": 72.0252,
        "meta_arg_of_pericenter": 162.3253,
        "meta_mean_anomaly": 54.7965,
        "meta_ephemeris_type": 0,
        "meta_classification_type": "U",
        "meta_norad_cat_id": 40732,
        "meta_element_set_no": 999,
        "meta_rev_at_epoch": 525,
        "meta_bstar": 0,
        "meta_mean_motion_dot": 8.1e-07,
        "meta_mean_motion_ddot": 0,
        "tle_line1": "1 40732U 15034A   25337.57502250  .00000081  00000+0  00000+0 0  9992",
        "tle_line2": "2 40732   2.7126  72.0252 0000241 162.3253  54.7965  1.00277850  5251"
      },
      "geometry": {
        "type": "Point",
        "coordinates": [
          139.65911870603168,
          2.5134950127183724
        ]
      }
    },
    {
      "type": "Feature",
      "properties": {
        "norad_id": 41105,
        "name": "ELEKTRO-L 2",
        "group": "weather",
        "lat": 4.220435585417781,
        "lon": 115.4837656576008,
        "alt_km": 35801.40286949967,
        "timestamp": "2025-12-04T03:47:54.197411+00:00",
        "meta_object_name": "ELEKTRO-L 2",
        "meta_object_id": "2015-074A",
        "meta_epoch": "2025-12-03T15:43:47.950176",
        "meta_mean_motion": 1.00269801,
        "meta_eccentricity": 0.0003998,
        "meta_inclination": 6.2011,
        "meta_ra_of_asc_node": 72.9341,
        "meta_arg_of_pericenter": 197.5531,
        "meta_mean_anomaly": 23.6802,
        "meta_ephemeris_type": 0,
        "meta_classification_type": "U",
        "meta_norad_cat_id": 41105,
        "meta_element_set_no": 999,
        "meta_rev_at_epoch": 3654,
        "meta_bstar": 0,
        "meta_mean_motion_dot": -1.03e-06,
        "meta_mean_motion_ddot": 0,
        "tle_line1": "1 41105U 15074A   25337.65541609 -.00000103  00000+0  00000+0 0  9997",
        "tle_line2": "2 41105   6.2011  72.9341 0003998 197.5531  23.6802  1.00269801 36545"
      },
      "geometry": {
        "type": "Point",
        "coordinates": [
          115.4837656576008,
          4.220435585417781
        ]
      }
    },
    {
      "type": "Feature",
      "properties": {
        "norad_id": 41752,
        "name": "INSAT-3DR",
        "group": "weather",
        "lat": 0.030773187632182418,
        "lon": -155.93493147292273,
        "alt_km": 35760.54725988562,
        "timestamp": "2025-12-04T03:47:54.197423+00:00",
        "meta_object_name": "INSAT-3DR",
        "meta_object_id": "2016-054A",
        "meta_epoch": "2025-12-03T20:11:36.471840",
        "meta_mean_motion": 1.00269576,
        "meta_eccentricity": 0.0014499,
        "meta_inclination": 0.069,
        "meta_ra_of_asc_node": 88.9534,
        "meta_arg_of_pericenter": 180.1514,
        "meta_mean_anomaly": 180.7502,
        "meta_ephemeris_type": 0,
        "meta_classification_type": "U",
        "meta_norad_cat_id": 41752,
        "meta_element_set_no": 999,
        "meta_rev_at_epoch": 3386,
        "meta_bstar": 0,
        "meta_mean_motion_dot": -6e-07,
        "meta_mean_motion_ddot": 0,
        "tle_line1": "1 41752U 16054A   25337.84139435 -.00000060  00000+0  00000+0 0  9997",
        "tle_line2": "2 41752   0.0690  88.9534 0014499 180.1514 180.7502  1.00269576 33869"
      },
      "geometry": {
        "type": "Point",
        "coordinates": [
          -155.93493147292273,
          0.030773187632182418
        ]
      }
    },
    {
      "type": "Feature",
      "properties": {
        "norad_id": 41836,
        "name": "HIMAWARI-9",
        "group": "weather",
        "lat": -0.03931186711397104,
        "lon": -89.08277802178823,
        "alt_km": 35777.94101839887,
        "timestamp": "2025-12-04T03:47:54.197435+00:00",
        "meta_object_name": "HIMAWARI-9",
        "meta_object_id": "2016-064A",
        "meta_epoch": "2025-12-03T18:51:33.971040",
        "meta_mean_motion": 1.00270864,
        "meta_eccentricity": 0.0002331,
        "meta_inclination": 0.0194,
        "meta_ra_of_asc_node": 347.0429,
        "meta_arg_of_pericenter": 314.766,
        "meta_mean_anomaly": 194.6947,
        "meta_ephemeris_type": 0,
        "meta_classification_type": "U",
        "meta_norad_cat_id": 41836,
        "meta_element_set_no": 999,
        "meta_rev_at_epoch": 3325,
        "meta_bstar": 0,
        "meta_mean_motion_dot": 0,
        "meta_mean_motion_ddot": 0,
        "tle_line1": "1 41836U 16064A   25337.78580985  .00000000  00000+0  00000+0 0  9997",
        "tle_line2": "2 41836   0.0194 347.0429 0002331 314.7660 194.6947  1.00270864 33254"
      },
      "geometry": {
        "type": "Point",
        "coordinates": [
          -89.08277802178823,
          -0.03931186711397104
        ]
      }
    }
  ]
}